     2.10           N: GPS NAV DATA                         RINEX VERSION / TYPE
VRS3Net             Reference Data Shop 2011-11-14 16:36:11 PGM / RUN BY / DATE 
                                                            COMMENT             
                                                            COMMENT             
                                                            COMMENT             
     .2515E-07  -.7451E-08  -.1192E-06   .1192E-06          ION ALPHA           
     .1311E+06  -.1638E+05  -.1966E+06  -.6554E+05          ION BETA            
    -.465661287308E-08 -.976996261670E-14   503808     1659 DELTA-UTC: A0,A1,T,W
    15                                                      LEAP SECONDS        
                                                            END OF HEADER       
30 11 10 26  8  0  0.0  .622896477580E-04 -.829913915368E-11  .000000000000E+00
     .290000000000E+02  .242500000000E+02  .471091051405E-08 -.670924026404E+00
     .138394534588E-05  .116509491345E-01  .113919377327E-04  .515543879128E+04
     .288000000000E+06 -.122934579849E-06  .460904333876E+00 -.167638063431E-07
     .957369758796E+00  .158281250000E+03  .158412310673E+01 -.822177104119E-08
     .603239413057E-09  .000000000000E+00  .165900000000E+04  .000000000000E+00
     .280000000000E+01  .000000000000E+00 -.419095158577E-08  .290000000000E+02
     .283908000000E+06  .000000000000E+00  .000000000000E+00  .000000000000E+00
31 11 10 26  7 59 44.0  .160640105605E-03  .522959453519E-11  .000000000000E+00
     .210000000000E+02 -.134312500000E+03  .397337979293E-08  .245624611283E+01
    -.673532485962E-05  .775404658634E-02  .110324472189E-04  .515376479149E+04
     .287984000000E+06  .147148966789E-06 -.471373952880E+00  .279396772385E-07
     .980603174195E+00  .176156250000E+03 -.950813136978E+00 -.765960476757E-08
    -.278225874939E-09  .000000000000E+00  .165900000000E+04  .000000000000E+00
     .200000000000E+01  .000000000000E+00 -.130385160446E-07  .210000000000E+02
     .282732000000E+06  .000000000000E+00  .000000000000E+00  .000000000000E+00
32 11 10 26  8  0  0.0 -.351546332240E-03 -.613908923697E-11  .000000000000E+00
     .700000000000E+02  .147843750000E+03  .450661629009E-08 -.306711798699E+01
     .769831240177E-05  .121853925521E-01  .653043389320E-05  .515354947090E+04
     .288000000000E+06 -.875443220139E-07 -.249268938005E+01  .195577740669E-06
     .953756362844E+00  .244750000000E+03 -.703583359460E+00 -.812605276843E-08
     .516807241382E-09  .000000000000E+00  .165900000000E+04  .000000000000E+00
     .200000000000E+01  .000000000000E+00 -.279396772385E-08  .700000000000E+02
     .280818000000E+06  .000000000000E+00  .000000000000E+00  .000000000000E+00
10 11 10 26 10  0  0.0 -.172713771462E-04 -.113686837722E-11  .000000000000E+00
     .460000000000E+02  .147156250000E+03  .468269512055E-08  .104774829060E+01
     .773556530476E-05  .106482509291E-01  .759772956371E-05  .515365042305E+04
     .295200000000E+06 -.137835741043E-06 -.255893203107E+01  .113621354103E-06
     .948024766843E+00  .226500000000E+03  .710841870354E+00 -.843535108430E-08
     .295726609867E-09  .000000000000E+00  .165900000000E+04  .000000000000E+00
     .280000000000E+01  .000000000000E+00 -.232830643654E-08  .460000000000E+02
     .288018000000E+06  .000000000000E+00  .000000000000E+00  .000000000000E+00
02 11 10 26 10  0  0.0  .362573657185E-03  .170530256582E-11  .000000000000E+00
     .720000000000E+02  .259375000000E+01  .475734101949E-08 -.125788019187E+01
     .428408384323E-07  .105688869953E-01  .122468918562E-04  .515359047127E+04
     .295200000000E+06  .126659870148E-06  .263953485858E+01 -.249594449997E-06
     .939107558468E+00  .135812500000E+03 -.291960530517E+01 -.797783230874E-08
    -.534307970357E-09  .000000000000E+00  .165900000000E+04  .000000000000E+00
     .200000000000E+01  .000000000000E+00 -.172294676304E-07  .720000000000E+02
     .288018000000E+06  .000000000000E+00  .000000000000E+00  .000000000000E+00
25 11 10 26  9 59 44.0  .251466408372E-04  .170530256582E-11  .000000000000E+00
     .100000000000E+01  .434062500000E+02  .452911722734E-08  .185930306938E+01
     .224448740482E-05  .992930377834E-03  .108834356070E-04  .515357372856E+04
     .295184000000E+06 -.260770320892E-07  .549780902318E+00  .260770320892E-07
     .966028620227E+00  .170281250000E+03  .937613772817E+00 -.792640159501E-08
     .752888503685E-09  .000000000000E+00  .165900000000E+04  .000000000000E+00
     .200000000000E+01  .000000000000E+00  .558793544769E-08  .100000000000E+01
     .288018000000E+06  .000000000000E+00  .000000000000E+00  .000000000000E+00
12 11 10 26 10  0  0.0  .308356247842E-04  .227373675443E-11  .000000000000E+00
     .870000000000E+02  .457812500000E+02  .426732071901E-08 -.294538478758E+01
     .231340527534E-05  .356649083551E-02  .107381492853E-04  .515363521385E+04
     .295200000000E+06 -.726431608200E-07  .581388827373E+00  .558793544769E-07
     .977186824531E+00  .179125000000E+03 -.696760349037E-01 -.776853781304E-08
     .715386916372E-09  .000000000000E+00  .165900000000E+04  .000000000000E+00
     .200000000000E+01  .000000000000E+00 -.121071934700E-07  .870000000000E+02
     .288018000000E+06  .000000000000E+00  .000000000000E+00  .000000000000E+00
04 11 10 26 10  0  0.0  .271847471595E-03  .113686837722E-10  .000000000000E+00
     .700000000000E+02 -.109687500000E+02  .472341099567E-08  .193456548811E+01
    -.696629285812E-06  .993302569259E-02  .128298997879E-04  .515373640442E+04
     .295200000000E+06 -.128522515297E-06  .265669759844E+01 -.875443220139E-07
     .938198704519E+00  .125843750000E+03  .785750340444E+00 -.807069344688E-08
    -.645026865254E-09  .000000000000E+00  .165900000000E+04  .000000000000E+00
     .200000000000E+01  .000000000000E+00 -.651925802231E-08  .700000000000E+02
     .288018000000E+06  .000000000000E+00  .000000000000E+00  .000000000000E+00
14 11 10 26 10  0  0.0  .178485177457E-03  .170530256582E-11  .000000000000E+00
     .420000000000E+02 -.471250000000E+02  .464197907135E-08 -.282926394757E+00
    -.242888927460E-05  .631799956318E-02  .949949026108E-06  .515372495461E+04
     .295200000000E+06 -.521540641785E-07 -.147164072831E+01  .121071934700E-06
     .980712675077E+00  .375312500000E+03 -.207363532152E+01 -.862678791177E-08
    -.892894335490E-10  .000000000000E+00  .165900000000E+04  .000000000000E+00
     .200000000000E+01  .000000000000E+00 -.884756445885E-08  .420000000000E+02
     .288018000000E+06  .000000000000E+00  .000000000000E+00  .000000000000E+00
09 11 10 26 10  0  0.0  .114227179438E-03  .250111042988E-11  .000000000000E+00
     .940000000000E+02 -.139968750000E+03  .372301222126E-08  .283880360711E+01
    -.725500285625E-05  .171768068103E-01  .124257057905E-04  .515366294289E+04
     .295200000000E+06  .283122062683E-06 -.500686354659E+00 -.819563865662E-07
     .984310913735E+00  .147000000000E+03  .160109848336E+01 -.743816697237E-08
    -.267153985179E-09  .000000000000E+00  .165900000000E+04  .000000000000E+00
     .280000000000E+01  .000000000000E+00 -.558793544769E-08  .940000000000E+02
     .288018000000E+06  .000000000000E+00  .000000000000E+00  .000000000000E+00
29 11 10 26 10  0  0.0  .251783989370E-03  .341060513165E-11  .000000000000E+00
     .630000000000E+02 -.196562500000E+02  .509235498214E-08  .282419388020E+01
    -.105053186417E-05  .211411342025E-02  .453181564808E-05  .515368917656E+04
     .295200000000E+06  .167638063431E-07  .164986956959E+01  .409781932831E-07
     .961852280231E+00  .291406250000E+03 -.116867683825E+01 -.832427549113E-08
    -.363586577512E-09  .000000000000E+00  .165900000000E+04  .000000000000E+00
     .200000000000E+01  .000000000000E+00 -.931322574615E-08  .630000000000E+02
     .288018000000E+06  .000000000000E+00  .000000000000E+00  .000000000000E+00
30 11 10 26 10  0  0.0  .622300431132E-04 -.829913915368E-11  .000000000000E+00
     .300000000000E+02  .199062500000E+02  .473019703169E-08  .378155073460E+00
     .119581818581E-05  .116516217822E-01  .117961317301E-04  .515543997574E+04
     .295200000000E+06 -.707805156708E-07  .460844684854E+00  .316649675369E-07
     .957374328952E+00  .152375000000E+03  .158414846495E+01 -.824105755884E-08
     .667884962947E-09  .000000000000E+00  .165900000000E+04  .000000000000E+00
     .400000000000E+01  .000000000000E+00 -.419095158577E-08  .300000000000E+02
     .288018000000E+06  .000000000000E+00  .000000000000E+00  .000000000000E+00
31 11 10 26 10  0  0.0  .160678289831E-03  .522959453519E-11  .000000000000E+00
     .560000000000E+02 -.149531250000E+03  .386051794893E-08 -.277455784512E+01
    -.750087201595E-05  .775130337570E-02  .117160379887E-04  .515376999283E+04
     .295200000000E+06  .130385160446E-07 -.471429613987E+00  .102445483208E-06
     .980601769794E+00  .162531250000E+03 -.950741426197E+00 -.761031700025E-08
    -.170364239212E-09  .000000000000E+00  .165900000000E+04  .000000000000E+00
     .200000000000E+01  .000000000000E+00 -.130385160446E-07  .560000000000E+02
     .288018000000E+06  .000000000000E+00  .000000000000E+00  .000000000000E+00
05 11 10 26 10  0  0.0 -.236795283854E-03 -.511590769747E-11  .000000000000E+00
     .370000000000E+02  .150375000000E+03  .451018786743E-08  .746549162506E+00
     .789761543274E-05  .256777822506E-02  .741146504879E-05  .515378884125E+04
     .295200000000E+06  .670552253723E-07 -.258173233933E+01  .137835741043E-06
     .953125110767E+00  .231281250000E+03  .175426588044E+00 -.823177145775E-08
     .462876423518E-09  .000000000000E+00  .165900000000E+04  .000000000000E+00
     .200000000000E+01  .000000000000E+00 -.102445483208E-07  .370000000000E+02
     .288228000000E+06  .000000000000E+00  .000000000000E+00  .000000000000E+00
